[
    {
        "Altitude(m)": 705463.9162795611,
        "Argument of Periapsis(deg)": 0.0011390121186627068,
        "Eccentricity": 0.0,
        "Inclination(deg)": 45.0,
        "Latitude(deg)": -10.809118155801508,
        "Longitude(deg)": -125.99657720150215,
        "Mean Anomaly(deg)": -15.21027833525194,
        "RAAN(deg)": 344.9989248058542,
        "Satellite Name": "Constellation 1 1539",
        "Satellite Number": 1539,
        "Semi-Major Axis(m)": 7083131.272910544,
        "Time(s)": 19
    },
    {
        "Altitude(m)": 705453.5654384025,
        "Argument of Periapsis(deg)": 0.0011989601249081123,
        "Eccentricity": 0.0,
        "Inclination(deg)": 45.0,
        "Latitude(deg)": -10.766720898683163,
        "Longitude(deg)": -125.95630460442626,
        "Mean Anomaly(deg)": -15.149577195002053,
        "RAAN(deg)": 344.9988682166886,
        "Satellite Name": "Constellation 1 1539",
        "Satellite Number": 1539,
        "Semi-Major Axis(m)": 7083131.272910544,
        "Time(s)": 20
    },
    {
        "Altitude(m)": 705443.2307978936,
        "Argument of Periapsis(deg)": 0.001258908131153518,
        "Eccentricity": 0.0,
        "Inclination(deg)": 45.0,
        "Latitude(deg)": -10.724317089372256,
        "Longitude(deg)": -125.91604431338844,
        "Mean Anomaly(deg)": -15.088876054752115,
        "RAAN(deg)": 344.9988116275231,
        "Satellite Name": "Constellation 1 1539",
        "Satellite Number": 1539,
        "Semi-Major Axis(m)": 7083131.272910544,
        "Time(s)": 21
    },
    {
        "Altitude(m)": 705432.9123864791,
        "Argument of Periapsis(deg)": 0.0013188561373989236,
        "Eccentricity": 0.0,
        "Inclination(deg)": 45.0,
        "Latitude(deg)": -10.681906755624162,
        "Longitude(deg)": -125.87579644504848,
        "Mean Anomaly(deg)": -15.02817491450228,
        "RAAN(deg)": 344.9987550383575,
        "Satellite Name": "Constellation 1 1539",
        "Satellite Number": 1539,
        "Semi-Major Axis(m)": 7083131.272910544,
        "Time(s)": 22
    },
    {
        "Altitude(m)": 705422.6102325241,
        "Argument of Periapsis(deg)": 0.0013788041436443293,
        "Eccentricity": 0.0,
        "Inclination(deg)": 45.0,
        "Latitude(deg)": -10.639489925171329,
        "Longitude(deg)": -125.83556061179891,
        "Mean Anomaly(deg)": -14.967473774252342,
        "RAAN(deg)": 344.9986984491919,
        "Satellite Name": "Constellation 1 1539",
        "Satellite Number": 1539,
        "Semi-Major Axis(m)": 7083131.272910544,
        "Time(s)": 23
    },
    {
        "Altitude(m)": 705412.3243643253,
        "Argument of Periapsis(deg)": 0.001438752149889735,
        "Eccentricity": 0.0,
        "Inclination(deg)": 45.0,
        "Latitude(deg)": -10.597066625722686,
        "Longitude(deg)": -125.79533693034783,
        "Mean Anomaly(deg)": -14.906772634002404,
        "RAAN(deg)": 344.99864186002634,
        "Satellite Name": "Constellation 1 1539",
        "Satellite Number": 1539,
        "Semi-Major Axis(m)": 7083131.272910544,
        "Time(s)": 24
    },
    {
        "Altitude(m)": 705402.0548100964,
        "Argument of Periapsis(deg)": 0.0014987001561351404,
        "Eccentricity": 0.0,
        "Inclination(deg)": 45.0,
        "Latitude(deg)": -10.554636884964191,
        "Longitude(deg)": -125.75512534932972,
        "Mean Anomaly(deg)": -14.84607149375257,
        "RAAN(deg)": 344.99858527086076,
        "Satellite Name": "Constellation 1 1539",
        "Satellite Number": 1539,
        "Semi-Major Axis(m)": 7083131.272910544,
        "Time(s)": 25
    },
    {
        "Altitude(m)": 705391.8015979677,
        "Argument of Periapsis(deg)": 0.001558648162380546,
        "Eccentricity": 0.0,
        "Inclination(deg)": 45.0,
        "Latitude(deg)": -10.512200730558817,
        "Longitude(deg)": -125.71492581740311,
        "Mean Anomaly(deg)": -14.785370353502733,
        "RAAN(deg)": 344.99852868169523,
        "Satellite Name": "Constellation 1 1539",
        "Satellite Number": 1539,
        "Semi-Major Axis(m)": 7083131.272910544,
        "Time(s)": 26
    },
    {
        "Altitude(m)": 705381.5647559944,
        "Argument of Periapsis(deg)": 0.0016185961686259519,
        "Eccentricity": 0.0,
        "Inclination(deg)": 45.0,
        "Latitude(deg)": -10.469758190146653,
        "Longitude(deg)": -125.67473828325039,
        "Mean Anomaly(deg)": -14.724669213252795,
        "RAAN(deg)": 344.99847209252965,
        "Satellite Name": "Constellation 1 1539",
        "Satellite Number": 1539,
        "Semi-Major Axis(m)": 7083131.272910544,
        "Time(s)": 27
    },
    {
        "Altitude(m)": 705371.3443121518,
        "Argument of Periapsis(deg)": 0.0016785441748713573,
        "Eccentricity": 0.0,
        "Inclination(deg)": 45.0,
        "Latitude(deg)": -10.427309291345184,
        "Longitude(deg)": -125.63456269557763,
        "Mean Anomaly(deg)": -14.663968073002808,
        "RAAN(deg)": 344.9984155033641,
        "Satellite Name": "Constellation 1 1539",
        "Satellite Number": 1539,
        "Semi-Major Axis(m)": 7083131.272910544,
        "Time(s)": 28
    },
    {
        "Altitude(m)": 705361.1402943389,
        "Argument of Periapsis(deg)": 0.001738492181116763,
        "Eccentricity": 0.0,
        "Inclination(deg)": 45.0,
        "Latitude(deg)": -10.384854061749234,
        "Longitude(deg)": -125.59439900311462,
        "Mean Anomaly(deg)": -14.603266932752973,
        "RAAN(deg)": 344.99835891419855,
        "Satellite Name": "Constellation 1 1539",
        "Satellite Number": 1539,
        "Semi-Major Axis(m)": 7083131.272910544,
        "Time(s)": 29
    },
    {
        "Altitude(m)": 705350.9527303732,
        "Argument of Periapsis(deg)": 0.0017984401873621684,
        "Eccentricity": 0.0,
        "Inclination(deg)": 45.0,
        "Latitude(deg)": -10.342392528930686,
        "Longitude(deg)": -125.55424732271159,
        "Mean Anomaly(deg)": -14.542565792503085,
        "RAAN(deg)": 344.9983023250329,
        "Satellite Name": "Constellation 1 1539",
        "Satellite Number": 1539,
        "Semi-Major Axis(m)": 7083131.272910544,
        "Time(s)": 30
    },
    {
        "Altitude(m)": 705340.7816479917,
        "Argument of Periapsis(deg)": 0.0018583881936075745,
        "Eccentricity": 0.0,
        "Inclination(deg)": 45.0,
        "Latitude(deg)": -10.299924720439721,
        "Longitude(deg)": -125.51410726695103,
        "Mean Anomaly(deg)": -14.481864652253098,
        "RAAN(deg)": 344.99824573586733,
        "Satellite Name": "Constellation 1 1539",
        "Satellite Number": 1539,
        "Semi-Major Axis(m)": 7083131.272910544,
        "Time(s)": 31
    },
    {
        "Altitude(m)": 705330.6270748554,
        "Argument of Periapsis(deg)": 0.0019183361998529795,
        "Eccentricity": 0.0,
        "Inclination(deg)": 45.0,
        "Latitude(deg)": -10.25745066380366,
        "Longitude(deg)": -125.4739789527304,
        "Mean Anomaly(deg)": -14.421163512003263,
        "RAAN(deg)": 344.9981891467018,
        "Satellite Name": "Constellation 1 1539",
        "Satellite Number": 1539,
        "Semi-Major Axis(m)": 7083131.272910544,
        "Time(s)": 32
    },
    {
        "Altitude(m)": 705320.489038548,
        "Argument of Periapsis(deg)": 0.0019782842060983856,
        "Eccentricity": 0.0,
        "Inclination(deg)": 45.0,
        "Latitude(deg)": -10.214970386527567,
        "Longitude(deg)": -125.43386232887292,
        "Mean Anomaly(deg)": -14.360462371753428,
        "RAAN(deg)": 344.9981325575362,
        "Satellite Name": "Constellation 1 1539",
        "Satellite Number": 1539,
        "Semi-Major Axis(m)": 7083131.272910544,
        "Time(s)": 33
    },
    {
        "Altitude(m)": 705310.3675665639,
        "Argument of Periapsis(deg)": 0.0020382322123437906,
        "Eccentricity": 0.0,
        "Inclination(deg)": 45.0,
        "Latitude(deg)": -10.1724839160944,
        "Longitude(deg)": -125.39375734422534,
        "Mean Anomaly(deg)": -14.29976123150349,
        "RAAN(deg)": 344.9980759683707,
        "Satellite Name": "Constellation 1 1539",
        "Satellite Number": 1539,
        "Semi-Major Axis(m)": 7083131.272910544,
        "Time(s)": 34
    },
    {
        "Altitude(m)": 705300.2626863271,
        "Argument of Periapsis(deg)": 0.002098180218589197,
        "Eccentricity": 0.0,
        "Inclination(deg)": 45.0,
        "Latitude(deg)": -10.129991279965232,
        "Longitude(deg)": -125.35366394765767,
        "Mean Anomaly(deg)": -14.239060091253553,
        "RAAN(deg)": 344.99801937920506,
        "Satellite Name": "Constellation 1 1539",
        "Satellite Number": 1539,
        "Semi-Major Axis(m)": 7083131.272910544,
        "Time(s)": 35
    },
    {
        "Altitude(m)": 705290.1744251777,
        "Argument of Periapsis(deg)": 0.002158128224834602,
        "Eccentricity": 0.0,
        "Inclination(deg)": 45.0,
        "Latitude(deg)": -10.087492505579094,
        "Longitude(deg)": -125.31358208806272,
        "Mean Anomaly(deg)": -14.178358951003716,
        "RAAN(deg)": 344.9979627900395,
        "Satellite Name": "Constellation 1 1539",
        "Satellite Number": 1539,
        "Semi-Major Axis(m)": 7083131.272910544,
        "Time(s)": 36
    },
    {
        "Altitude(m)": 705280.1028103811,
        "Argument of Periapsis(deg)": 0.002218076231080008,
        "Eccentricity": 0.0,
        "Inclination(deg)": 45.0,
        "Latitude(deg)": -10.044987620352842,
        "Longitude(deg)": -125.27351188245358,
        "Mean Anomaly(deg)": -14.117657810753778,
        "RAAN(deg)": 344.99790620087396,
        "Satellite Name": "Constellation 1 1539",
        "Satellite Number": 1539,
        "Semi-Major Axis(m)": 7083131.272910544,
        "Time(s)": 37
    }
]